CCSDS_OEM_VERS = 1.0
CREATION_DATE  = 2017-05-11T12:06:37
ORIGINATOR     = GMAT USER

META_START
OBJECT_NAME          = MOPSSat_alt_35785_km_RAAN_270_152
OBJECT_ID            = SatId
CENTER_NAME          = Earth
REF_FRAME            = EME2000
TIME_SYSTEM          = UTC
START_TIME           = 2017-01-01T00:00:00.000
USEABLE_START_TIME   = 2017-01-01T00:00:00.000
USEABLE_STOP_TIME    = 2017-01-02T00:00:00.000
STOP_TIME            = 2017-01-02T00:00:00.000
INTERPOLATION        = Lagrange
INTERPOLATION_DEGREE = 7 
META_STOP


                                                                                   

2017-01-01T21:50:50.000  -2.979096880454877e+04  -3.319115917217071e+03  -2.566680480989223e+02   2.166960948854191e+00  -3.527522485839397e+00   1.876468040535442e-02
2017-01-01T21:51:00.000  -2.976927714348686e+04  -3.354388676117797e+03  -2.564802112071275e+02   2.171371984450357e+00  -3.527028210756205e+00   1.880270413623694e-02
2017-01-01T21:51:10.000  -2.974754134962224e+04  -3.389656461076790e+03  -2.562919938854521e+02   2.175787592230748e+00  -3.526527828944906e+00   1.884076709875502e-02
2017-01-01T21:51:20.000  -2.972576137701584e+04  -3.424919211285877e+03  -2.561033957397006e+02   2.180207771554272e+00  -3.526021320706441e+00   1.887886928686477e-02
2017-01-01T21:51:30.000  -2.970393717978516e+04  -3.460176865658917e+03  -2.559144163761731e+02   2.184632521723027e+00  -3.525508666290787e+00   1.891701069403118e-02
2017-01-01T21:51:40.000  -2.968206871199486e+04  -3.495429363011325e+03  -2.557250554007167e+02   2.189061842004406e+00  -3.524989845894496e+00   1.895519131341869e-02
2017-01-01T21:51:50.000  -2.966015592793431e+04  -3.530676641602268e+03  -2.555353124211295e+02   2.193495731574040e+00  -3.524464839666524e+00   1.899341113739934e-02
2017-01-01T21:52:00.000  -2.963819878191407e+04  -3.565918639473859e+03  -2.553451870453978e+02   2.197934189557413e+00  -3.523933627704078e+00   1.903167015791156e-02
2017-01-01T21:52:10.000  -2.961619722826393e+04  -3.601155294450329e+03  -2.551546788816792e+02   2.202377215029786e+00  -3.523396190052241e+00   1.906996836645944e-02
2017-01-01T21:52:20.000  -2.959415122155080e+04  -3.636386543799397e+03  -2.549637875401899e+02   2.206824806972547e+00  -3.522852506709922e+00   1.910830575373651e-02
2017-01-01T21:52:30.000  -2.957206071628872e+04  -3.671612324687449e+03  -2.547725126306923e+02   2.211276964330989e+00  -3.522302557622074e+00   1.914668231012379e-02
2017-01-01T21:52:40.000  -2.954992566705297e+04  -3.706832573999395e+03  -2.545808537634844e+02   2.215733685991173e+00  -3.521746322682614e+00   1.918509802549031e-02
2017-01-01T21:52:50.000  -2.952774602798142e+04  -3.742047229132996e+03  -2.543888105450818e+02   2.220194970880126e+00  -3.521183781721878e+00   1.922355289005682e-02
2017-01-01T21:53:00.000  -2.950552175327377e+04  -3.777256227203443e+03  -2.541963825825401e+02   2.224660817865012e+00  -3.520614914519031e+00   1.926204689352668e-02
2017-01-01T21:53:10.000  -2.948325279708011e+04  -3.812459505222654e+03  -2.540035694824902e+02   2.229131225775435e+00  -3.520039700799344e+00   1.930058002527807e-02
2017-01-01T21:53:20.000  -2.946093911378364e+04  -3.847656999642030e+03  -2.538103708535866e+02   2.233606193345830e+00  -3.519458120240736e+00   1.933915227386739e-02
2017-01-01T21:53:30.000  -2.943858065779341e+04  -3.882848646691237e+03  -2.536167863047124e+02   2.238085719257464e+00  -3.518870152469113e+00   1.937776362739133e-02
2017-01-01T21:53:40.000  -2.941617738354237e+04  -3.918034382377365e+03  -2.534228154449621e+02   2.242569802138342e+00  -3.518275777057986e+00   1.941641407348611e-02
2017-01-01T21:53:50.000  -2.939372924570919e+04  -3.953214142146850e+03  -2.532284578855630e+02   2.247058440519150e+00  -3.517674973535017e+00   1.945510359894765e-02
2017-01-01T21:54:00.000  -2.937123619892304e+04  -3.988387861339912e+03  -2.530337132373180e+02   2.251551632891554e+00  -3.517067721373479e+00   1.949383219023413e-02
2017-01-01T21:54:10.000  -2.934869819788203e+04  -4.023555475007297e+03  -2.528385811116323e+02   2.256049377684386e+00  -3.516453999995543e+00   1.953259983326071e-02
2017-01-01T21:54:20.000  -2.932611519683680e+04  -4.058716918716686e+03  -2.526430611160418e+02   2.260551673366487e+00  -3.515833788758197e+00   1.957140651428593e-02
2017-01-01T21:54:30.000  -2.930348715010891e+04  -4.093872127743125e+03  -2.524471528587005e+02   2.265058518342945e+00  -3.515207066967263e+00   1.961025221901740e-02
2017-01-01T21:54:40.000  -2.928081401195815e+04  -4.129021037277416e+03  -2.522508559472335e+02   2.269569910981396e+00  -3.514573813873810e+00   1.964913693283845e-02
2017-01-01T21:54:50.000  -2.925809573694001e+04  -4.164163581863640e+03  -2.520541699918298e+02   2.274085849540149e+00  -3.513934008683514e+00   1.968806064018867e-02
2017-01-01T21:55:00.000  -2.923533227961246e+04  -4.199299695862471e+03  -2.518570946027056e+02   2.278606332226768e+00  -3.513287630549030e+00   1.972702332506878e-02
2017-01-01T21:55:10.000  -2.921252359460181e+04  -4.234429313347090e+03  -2.516596293906731e+02   2.283131357184585e+00  -3.512634658571624e+00   1.976602497092446e-02
2017-01-01T21:55:20.000  -2.918966963658853e+04  -4.269552368131217e+03  -2.514617739670182e+02   2.287660922495613e+00  -3.511975071801153e+00   1.980506556067135e-02
2017-01-01T21:55:30.000  -2.916677036028224e+04  -4.304668793803175e+03  -2.512635279432839e+02   2.292195026184972e+00  -3.511308849234990e+00   1.984414507673328e-02
2017-01-01T21:55:40.000  -2.914382572041440e+04  -4.339778523738094e+03  -2.510648909312073e+02   2.296733666222121e+00  -3.510635969817827e+00   1.988326350105292e-02
2017-01-01T21:55:50.000  -2.912083567165833e+04  -4.374881491223166e+03  -2.508658625420265e+02   2.301276840536588e+00  -3.509956412439479e+00   1.992242081522723e-02
2017-01-01T21:56:00.000  -2.909780016868254e+04  -4.409977629373106e+03  -2.506664423869434e+02   2.305824547006959e+00  -3.509270155936197e+00   1.996161700041270e-02
2017-01-01T21:56:10.000  -2.907471916615176e+04  -4.445066871129715e+03  -2.504666300771311e+02   2.310376783460481e+00  -3.508577179090727e+00   2.000085203732180e-02
2017-01-01T21:56:20.000  -2.905159261867068e+04  -4.480149149344727e+03  -2.502664252232485e+02   2.314933547683718e+00  -3.507877460630389e+00   2.004012590631491e-02
2017-01-01T21:56:30.000  -2.902842048086837e+04  -4.515224396654009e+03  -2.500658274361701e+02   2.319494837405774e+00  -3.507170979229739e+00   2.007943858725562e-02
2017-01-01T21:56:40.000  -2.900520270740761e+04  -4.550292545464419e+03  -2.498648363270667e+02   2.324060650296236e+00  -3.506457713510878e+00   2.011879005949310e-02
2017-01-01T21:56:50.000  -2.898193925300569e+04  -4.585353527917915e+03  -2.496634515075861e+02   2.328630983960543e+00  -3.505737642043722e+00   2.015818030182213e-02
2017-01-01T21:57:00.000  -2.895863007245700e+04  -4.620407275863531e+03  -2.494616725900482e+02   2.333205835935618e+00  -3.505010743347100e+00   2.019760929244550e-02
2017-01-01T21:57:10.000  -2.893527512056369e+04  -4.655453720959737e+03  -2.492594991868449e+02   2.337785203703080e+00  -3.504276995886401e+00   2.023707700908784e-02
2017-01-01T21:57:20.000  -2.891187435244850e+04  -4.690492794212832e+03  -2.490569309131481e+02   2.342369084628086e+00  -3.503536378083921e+00   2.027658342846850e-02
2017-01-01T21:57:30.000  -2.888842772317805e+04  -4.725524426535299e+03  -2.488539673836480e+02   2.346957476032510e+00  -3.502788868306483e+00   2.031612852693231e-02
2017-01-01T21:57:40.000  -2.886493518790309e+04  -4.760548548537367e+03  -2.486506082137686e+02   2.351550375167253e+00  -3.502034444869968e+00   2.035571228021094e-02
2017-01-01T21:57:50.000  -2.884139670131942e+04  -4.795565091332222e+03  -2.484468530150000e+02   2.356147779317467e+00  -3.501273086022046e+00   2.039533466432962e-02
2017-01-01T21:58:00.000  -2.881781221820650e+04  -4.830573985731712e+03  -2.482427013995608e+02   2.360749685696867e+00  -3.500504769959365e+00   2.043499565469653e-02
2017-01-01T21:58:10.000  -2.879418169330693e+04  -4.865575162428070e+03  -2.480381529793563e+02   2.365356091471133e+00  -3.499729474823777e+00   2.047469522630423e-02
2017-01-01T21:58:20.000  -2.877050508162684e+04  -4.900568551539027e+03  -2.478332073685768e+02   2.369966993698474e+00  -3.498947178711438e+00   2.051443335321754e-02
2017-01-01T21:58:30.000  -2.874678233821577e+04  -4.935554082944921e+03  -2.476278641817934e+02   2.374582389372905e+00  -3.498157859666354e+00   2.055421000894650e-02
2017-01-01T21:58:40.000  -2.872301341816468e+04  -4.970531686287744e+03  -2.474221230339408e+02   2.379202275424087e+00  -3.497361495680006e+00   2.059402516644500e-02
2017-01-01T21:58:50.000  -2.869919827684138e+04  -5.005501290635335e+03  -2.472159835423540e+02   2.383826648671934e+00  -3.496558064699954e+00   2.063387879771953e-02
2017-01-01T21:59:00.000  -2.867533686957738e+04  -5.040462824932858e+03  -2.470094453240590e+02   2.388455505886603e+00  -3.495747544618655e+00   2.067377087434631e-02
2017-01-01T21:59:10.000  -2.865142915179134e+04  -5.075416217824086e+03  -2.468025079968407e+02   2.393088843764393e+00  -3.494929913277781e+00   2.071370136726338e-02
2017-01-01T21:59:20.000  -2.862747507845058e+04  -5.110361398439704e+03  -2.465951711745816e+02   2.397726659031863e+00  -3.494105148449827e+00   2.075367024766809e-02
2017-01-01T21:59:30.000  -2.860347460461028e+04  -5.145298295607869e+03  -2.463874344719302e+02   2.402368948340960e+00  -3.493273227856464e+00   2.079367748611317e-02
2017-01-01T21:59:40.000  -2.857942768529339e+04  -5.180226838032201e+03  -2.461792975032598e+02   2.407015708292144e+00  -3.492434129164570e+00   2.083372305270614e-02
2017-01-01T21:59:50.000  -2.855533427579615e+04  -5.215146953837734e+03  -2.459707598853144e+02   2.411666935374429e+00  -3.491587829996107e+00   2.087380691659244e-02
